[{"OBJECT_NAME":"YAOGAN-33 01","OBJECT_ID":"2020-103A","EPOCH":"2026-03-09T23:33:33.988896","MEAN_MOTION":14.58835093,"ECCENTRICITY":0.00042815,"INCLINATION":98.0558,"RA_OF_ASC_NODE":313.645,"ARG_OF_PERICENTER":85.5228,"MEAN_ANOMALY":274.646,"EPHEMERIS_TYPE":0,"CLASSIFICATION_TYPE":"U","NORAD_CAT_ID":47302,"ELEMENT_SET_NO":999,"REV_AT_EPOCH":27684,"BSTAR":0.00014306185,"MEAN_MOTION_DOT":6.25e-6,"MEAN_MOTION_DDOT":0},{"OBJECT_NAME":"MICROSCOPE","OBJECT_ID":"2016-025B","EPOCH":"2026-03-09T23:27:22.106016","MEAN_MOTION":14.59406446,"ECCENTRICITY":0.00016265,"INCLINATION":98.2497,"RA_OF_ASC_NODE":82.2323,"ARG_OF_PERICENTER":105.0018,"MEAN_ANOMALY":255.1362,"EPHEMERIS_TYPE":0,"CLASSIFICATION_TYPE":"U","NORAD_CAT_ID":41457,"ELEMENT_SET_NO":999,"REV_AT_EPOCH":52425,"BSTAR":0.00028494705,"MEAN_MOTION_DOT":1.303e-5,"MEAN_MOTION_DDOT":0}]
